{
 "generated_at": "2026-06-22T10:39:18Z",
 "sources": [
  {
   "name": "CelesTrak",
   "url": "https://celestrak.org/NORAD/elements/",
   "license": "frei verfügbar; Attribution. Ursprünglich USSPACECOM/Space-Track."
  },
  {
   "name": "GCAT (J. McDowell, planet4589.org)",
   "url": "https://planet4589.org/space/gcat/",
   "license": "CC-BY 4.0"
  }
 ],
 "satellites": [
  {
   "norad": 58648,
   "name": "TIANMU-1 14",
   "intl": "2023-205D",
   "group": "weather",
   "gcat": {
    "class": "B",
    "category": "MET",
    "owner": "TIANMU",
    "state": "CN"
   },
   "omm": {
    "OBJECT_NAME": "TIANMU-1 14",
    "OBJECT_ID": "2023-205D",
    "EPOCH": "2026-06-21T11:56:36.433824",
    "MEAN_MOTION": 15.2689593,
    "ECCENTRICITY": 0.0006382,
    "INCLINATION": 97.3401,
    "RA_OF_ASC_NODE": 193.1933,
    "ARG_OF_PERICENTER": 328.1981,
    "MEAN_ANOMALY": 31.8872,
    "EPHEMERIS_TYPE": 0,
    "CLASSIFICATION_TYPE": "U",
    "NORAD_CAT_ID": 58648,
    "ELEMENT_SET_NO": 999,
    "REV_AT_EPOCH": 13816,
    "BSTAR": 0.00016465,
    "MEAN_MOTION_DOT": 0.00004278,
    "MEAN_MOTION_DDOT": 0
   }
  },
  {
   "norad": 58700,
   "name": "TIANMU-1 15",
   "intl": "2024-004A",
   "group": "weather",
   "gcat": {
    "class": "B",
    "category": "MET",
    "owner": "TIANMU",
    "state": "CN"
   },
   "omm": {
    "OBJECT_NAME": "TIANMU-1 15",
    "OBJECT_ID": "2024-004A",
    "EPOCH": "2026-06-21T13:18:32.623200",
    "MEAN_MOTION": 15.27060875,
    "ECCENTRICITY": 0.0006262,
    "INCLINATION": 97.4674,
    "RA_OF_ASC_NODE": 358.7457,
    "ARG_OF_PERICENTER": 346.3791,
    "MEAN_ANOMALY": 13.7278,
    "EPHEMERIS_TYPE": 0,
    "CLASSIFICATION_TYPE": "U",
    "NORAD_CAT_ID": 58700,
    "ELEMENT_SET_NO": 999,
    "REV_AT_EPOCH": 13644,
    "BSTAR": 0.00017035,
    "MEAN_MOTION_DOT": 0.00004449,
    "MEAN_MOTION_DDOT": 0
   }
  },
  {
   "norad": 58701,
   "name": "TIANMU-1 16",
   "intl": "2024-004B",
   "group": "weather",
   "gcat": {
    "class": "B",
    "category": "MET",
    "owner": "TIANMU",
    "state": "CN"
   },
   "omm": {
    "OBJECT_NAME": "TIANMU-1 16",
    "OBJECT_ID": "2024-004B",
    "EPOCH": "2026-06-21T13:04:10.677792",
    "MEAN_MOTION": 15.26785843,
    "ECCENTRICITY": 0.0005379,
    "INCLINATION": 97.4622,
    "RA_OF_ASC_NODE": 357.9677,
    "ARG_OF_PERICENTER": 352.3663,
    "MEAN_ANOMALY": 7.7493,
    "EPHEMERIS_TYPE": 0,
    "CLASSIFICATION_TYPE": "U",
    "NORAD_CAT_ID": 58701,
    "ELEMENT_SET_NO": 999,
    "REV_AT_EPOCH": 13644,
    "BSTAR": 0.00017484,
    "MEAN_MOTION_DOT": 0.0000453,
    "MEAN_MOTION_DDOT": 0
   }
  },
  {
   "norad": 58702,
   "name": "TIANMU-1 17",
   "intl": "2024-004C",
   "group": "weather",
   "gcat": {
    "class": "B",
    "category": "MET",
    "owner": "TIANMU",
    "state": "CN"
   },
   "omm": {
    "OBJECT_NAME": "TIANMU-1 17",
    "OBJECT_ID": "2024-004C",
    "EPOCH": "2026-06-21T12:43:14.114208",
    "MEAN_MOTION": 15.26784809,
    "ECCENTRICITY": 0.000507,
    "INCLINATION": 97.4648,
    "RA_OF_ASC_NODE": 358.4398,
    "ARG_OF_PERICENTER": 359.4602,
    "MEAN_ANOMALY": 0.663,
    "EPHEMERIS_TYPE": 0,
    "CLASSIFICATION_TYPE": "U",
    "NORAD_CAT_ID": 58702,
    "ELEMENT_SET_NO": 999,
    "REV_AT_EPOCH": 13643,
    "BSTAR": 0.00017987,
    "MEAN_MOTION_DOT": 0.00004662,
    "MEAN_MOTION_DDOT": 0
   }
  },
  {
   "norad": 58703,
   "name": "TIANMU-1 18",
   "intl": "2024-004D",
   "group": "weather",
   "gcat": {
    "class": "B",
    "category": "MET",
    "owner": "TIANMU",
    "state": "CN"
   },
   "omm": {
    "OBJECT_NAME": "TIANMU-1 18",
    "OBJECT_ID": "2024-004D",
    "EPOCH": "2026-06-21T12:08:11.152032",
    "MEAN_MOTION": 15.27041126,
    "ECCENTRICITY": 0.0003609,
    "INCLINATION": 97.4666,
    "RA_OF_ASC_NODE": 358.6735,
    "ARG_OF_PERICENTER": 0.4275,
    "MEAN_ANOMALY": 359.6966,
    "EPHEMERIS_TYPE": 0,
    "CLASSIFICATION_TYPE": "U",
    "NORAD_CAT_ID": 58703,
    "ELEMENT_SET_NO": 999,
    "REV_AT_EPOCH": 13643,
    "BSTAR": 0.00016032,
    "MEAN_MOTION_DOT": 0.00004179,
    "MEAN_MOTION_DDOT": 0
   }
  },
  {
   "norad": 58660,
   "name": "TIANMU-1 19",
   "intl": "2023-208A",
   "group": "weather",
   "gcat": {
    "class": "B",
    "category": "MET",
    "owner": "TIANMU",
    "state": "CN"
   },
   "omm": {
    "OBJECT_NAME": "TIANMU-1 19",
    "OBJECT_ID": "2023-208A",
    "EPOCH": "2026-06-21T09:40:16.103424",
    "MEAN_MOTION": 15.31627133,
    "ECCENTRICITY": 0.0003546,
    "INCLINATION": 97.4505,
    "RA_OF_ASC_NODE": 288.7245,
    "ARG_OF_PERICENTER": 308.1636,
    "MEAN_ANOMALY": 51.9285,
    "EPHEMERIS_TYPE": 0,
    "CLASSIFICATION_TYPE": "U",
    "NORAD_CAT_ID": 58660,
    "ELEMENT_SET_NO": 999,
    "REV_AT_EPOCH": 13797,
    "BSTAR": 0.00021646,
    "MEAN_MOTION_DOT": 0.00006532,
    "MEAN_MOTION_DDOT": 0
   }
  },
  {
   "norad": 58661,
   "name": "TIANMU-1 20",
   "intl": "2023-208B",
   "group": "weather",
   "gcat": {
    "class": "B",
    "category": "MET",
    "owner": "TIANMU",
    "state": "CN"
   },
   "omm": {
    "OBJECT_NAME": "TIANMU-1 20",
    "OBJECT_ID": "2023-208B",
    "EPOCH": "2026-06-21T13:37:59.418912",
    "MEAN_MOTION": 15.32819357,
    "ECCENTRICITY": 0.0005732,
    "INCLINATION": 97.4447,
    "RA_OF_ASC_NODE": 289.5303,
    "ARG_OF_PERICENTER": 315.3365,
    "MEAN_ANOMALY": 44.7415,
    "EPHEMERIS_TYPE": 0,
    "CLASSIFICATION_TYPE": "U",
    "NORAD_CAT_ID": 58661,
    "ELEMENT_SET_NO": 999,
    "REV_AT_EPOCH": 13809,
    "BSTAR": 0.00020107,
    "MEAN_MOTION_DOT": 0.00006296,
    "MEAN_MOTION_DDOT": 0
   }
  },
  {
   "norad": 58662,
   "name": "TIANMU-1 21",
   "intl": "2023-208C",
   "group": "weather",
   "gcat": {
    "class": "B",
    "category": "MET",
    "owner": "TIANMU",
    "state": "CN"
   },
   "omm": {
    "OBJECT_NAME": "TIANMU-1 21",
    "OBJECT_ID": "2023-208C",
    "EPOCH": "2026-06-21T11:37:49.651680",
    "MEAN_MOTION": 15.35141113,
    "ECCENTRICITY": 0.0005737,
    "INCLINATION": 97.4507,
    "RA_OF_ASC_NODE": 292.1457,
    "ARG_OF_PERICENTER": 305.0266,
    "MEAN_ANOMALY": 55.0438,
    "EPHEMERIS_TYPE": 0,
    "CLASSIFICATION_TYPE": "U",
    "NORAD_CAT_ID": 58662,
    "ELEMENT_SET_NO": 999,
    "REV_AT_EPOCH": 13822,
    "BSTAR": 0.00023428,
    "MEAN_MOTION_DOT": 0.00007912,
    "MEAN_MOTION_DDOT": 0
   }
  },
  {
   "norad": 58663,
   "name": "TIANMU-1 22",
   "intl": "2023-208D",
   "group": "weather",
   "gcat": {
    "class": "B",
    "category": "MET",
    "owner": "TIANMU",
    "state": "CN"
   },
   "omm": {
    "OBJECT_NAME": "TIANMU-1 22",
    "OBJECT_ID": "2023-208D",
    "EPOCH": "2026-06-21T12:24:19.951776",
    "MEAN_MOTION": 15.31108395,
    "ECCENTRICITY": 0.0002791,
    "INCLINATION": 97.4501,
    "RA_OF_ASC_NODE": 288.7713,
    "ARG_OF_PERICENTER": 346.8495,
    "MEAN_ANOMALY": 13.2672,
    "EPHEMERIS_TYPE": 0,
    "CLASSIFICATION_TYPE": "U",
    "NORAD_CAT_ID": 58663,
    "ELEMENT_SET_NO": 999,
    "REV_AT_EPOCH": 13799,
    "BSTAR": 0.00020026,
    "MEAN_MOTION_DOT": 0.0000594,
    "MEAN_MOTION_DDOT": 0
   }
  },
  {
   "norad": 58297,
   "name": "UMBRA-07",
   "intl": "2023-174AT",
   "group": "sar",
   "gcat": {
    "class": "B",
    "category": "IMG-R",
    "owner": "UMBRA",
    "state": "US"
   },
   "omm": {
    "OBJECT_NAME": "UMBRA-07",
    "OBJECT_ID": "2023-174AT",
    "EPOCH": "2026-06-20T10:06:00.021312",
    "MEAN_MOTION": 15.09184263,
    "ECCENTRICITY": 0.0004599,
    "INCLINATION": 97.3792,
    "RA_OF_ASC_NODE": 227.0609,
    "ARG_OF_PERICENTER": 81.7261,
    "MEAN_ANOMALY": 278.4489,
    "EPHEMERIS_TYPE": 0,
    "CLASSIFICATION_TYPE": "U",
    "NORAD_CAT_ID": 58297,
    "ELEMENT_SET_NO": 999,
    "REV_AT_EPOCH": 14390,
    "BSTAR": 0.00052117,
    "MEAN_MOTION_DOT": 0.00008226,
    "MEAN_MOTION_DDOT": 0
   }
  }
 ]
}
