UMBRA-07                
1 58297U 23174AT  26171.42083358  .00008226  00000+0  52117-3 0  9994
2 58297  97.3792 227.0609 0004599  81.7261 278.4489 15.09184263143906
TIANMU-1 14             
1 58648U 23205D   26172.49764391  .00004278  00000+0  16465-3 0  9999
2 58648  97.3401 193.1933 0006382 328.1981  31.8872 15.26895930138163
TIANMU-1 19             
1 58660U 23208A   26172.40296416  .00006532  00000+0  21646-3 0  9997
2 58660  97.4505 288.7245 0003546 308.1636  51.9285 15.31627133137977
TIANMU-1 20             
1 58661U 23208B   26172.56804883  .00006296  00000+0  20107-3 0  9996
2 58661  97.4447 289.5303 0005732 315.3365  44.7415 15.32819357138096
TIANMU-1 21             
1 58662U 23208C   26172.48460245  .00007912  00000+0  23428-3 0  9993
2 58662  97.4507 292.1457 0005737 305.0266  55.0438 15.35141113138221
TIANMU-1 22             
1 58663U 23208D   26172.51689759  .00005940  00000+0  20026-3 0  9991
2 58663  97.4501 288.7713 0002791 346.8495  13.2672 15.31108395137996
TIANMU-1 15             
1 58700U 24004A   26172.55454425  .00004449  00000+0  17035-3 0  9991
2 58700  97.4674 358.7457 0006262 346.3791  13.7278 15.27060875136444
TIANMU-1 16             
1 58701U 24004B   26172.54456803  .00004530  00000+0  17484-3 0  9992
2 58701  97.4622 357.9677 0005379 352.3663   7.7493 15.26785843136446
TIANMU-1 17             
1 58702U 24004C   26172.53002447  .00004662  00000+0  17987-3 0  9997
2 58702  97.4648 358.4398 0005070 359.4602   0.6630 15.26784809136435
TIANMU-1 18             
1 58703U 24004D   26172.50568463  .00004179  00000+0  16032-3 0  9993
2 58703  97.4666 358.6735 0003609   0.4275 359.6966 15.27041126136436
